STARLINK-1478_new
1 15755C 20038AB  21326.15329412  .00005693  00000-0  38157-3 0  3264
2 15755  53.0551  58.0638 0001483  77.2735 256.8832 15.06382876    15
STARLINK-1478_old
1 25755C 20038AB  21325.17343263  .00005960  00000-0  39925-3 0  3255
2 25755  53.0553  62.4623 0001421  75.8742 341.4851 15.06400338    10
